STARLINK-31240          
1 59041U 24038U   26068.22211088  .00000450  00000+0  25888-4 0  9995
2 59041  43.0041  26.4720 0001188 264.6648  95.4068 15.27580751114726
FLOCK 4G-1              
1 62666U 25009BK  26068.75951132  .00013534  00000+0  50654-3 0  9995
2 62666  97.4059 151.3158 0003180 323.1401  36.9619 15.27421081 63725
